[{"OBJECT_NAME":"STARLINK-31174","OBJECT_ID":"2024-012X","EPOCH":"2025-09-20T16:54:44.374464","MEAN_MOTION":15.27590465,"ECCENTRICITY":7.504e-5,"INCLINATION":43.0035,"RA_OF_ASC_NODE":44.8263,"ARG_OF_PERICENTER":321.2917,"MEAN_ANOMALY":38.788,"EPHEMERIS_TYPE":0,"CLASSIFICATION_TYPE":"U","NORAD_CAT_ID":58808,"ELEMENT_SET_NO":999,"REV_AT_EPOCH":9524,"BSTAR":7.6205015e-5,"MEAN_MOTION_DOT":1.836e-5,"MEAN_MOTION_DDOT":0},{"OBJECT_NAME":"STARLINK-31169","OBJECT_ID":"2024-012Y","EPOCH":"2025-09-19T10:25:16.597632","MEAN_MOTION":15.27580888,"ECCENTRICITY":0.00014726,"INCLINATION":43.0026,"RA_OF_ASC_NODE":52.4837,"ARG_OF_PERICENTER":273.2688,"MEAN_ANOMALY":86.7995,"EPHEMERIS_TYPE":0,"CLASSIFICATION_TYPE":"U","NORAD_CAT_ID":58809,"ELEMENT_SET_NO":999,"REV_AT_EPOCH":9504,"BSTAR":4.3398675e-5,"MEAN_MOTION_DOT":9.32e-6,"MEAN_MOTION_DDOT":0},{"OBJECT_NAME":"STARLINK-31233","OBJECT_ID":"2024-017A","EPOCH":"2025-09-19T08:20:04.201440","MEAN_MOTION":15.3019522,"ECCENTRICITY":0.00013437,"INCLINATION":53.1595,"RA_OF_ASC_NODE":280.1433,"ARG_OF_PERICENTER":89.5981,"MEAN_ANOMALY":270.5174,"EPHEMERIS_TYPE":0,"CLASSIFICATION_TYPE":"U","NORAD_CAT_ID":58826,"ELEMENT_SET_NO":999,"REV_AT_EPOCH":9394,"BSTAR":2.0738642e-5,"MEAN_MOTION_DOT":2.55e-6,"MEAN_MOTION_DDOT":0},{"OBJECT_NAME":"STARLINK-31271","OBJECT_ID":"2024-017B","EPOCH":"2025-09-20T17:53:10.817376","MEAN_MOTION":15.3019027,"ECCENTRICITY":0.00013037,"INCLINATION":53.1589,"RA_OF_ASC_NODE":273.9327,"ARG_OF_PERICENTER":87.0081,"MEAN_ANOMALY":273.1069,"EPHEMERIS_TYPE":0,"CLASSIFICATION_TYPE":"U","NORAD_CAT_ID":58827,"ELEMENT_SET_NO":999,"REV_AT_EPOCH":9403,"BSTAR":5.806201e-6,"MEAN_MOTION_DOT":-1.87e-6,"MEAN_MOTION_DDOT":0},{"OBJECT_NAME":"STARLINK-31222","OBJECT_ID":"2024-017C","EPOCH":"2025-09-20T00:56:39.879744","MEAN_MOTION":15.30190878,"ECCENTRICITY":0.00014416,"INCLINATION":53.1587,"RA_OF_ASC_NODE":276.637,"ARG_OF_PERICENTER":78.7251,"MEAN_ANOMALY":281.3912,"EPHEMERIS_TYPE":0,"CLASSIFICATION_TYPE":"U","NORAD_CAT_ID":58828,"ELEMENT_SET_NO":999,"REV_AT_EPOCH":9393,"BSTAR":3.2342557e-5,"MEAN_MOTION_DOT":5.98e-6,"MEAN_MOTION_DDOT":0},{"OBJECT_NAME":"STARLINK-31258","OBJECT_ID":"2024-017D","EPOCH":"2025-09-20T17:24:18.212256","MEAN_MOTION":15.3020116,"ECCENTRICITY":0.00012244,"INCLINATION":53.1598,"RA_OF_ASC_NODE":273.8059,"ARG_OF_PERICENTER":91.5182,"MEAN_ANOMALY":268.596,"EPHEMERIS_TYPE":0,"CLASSIFICATION_TYPE":"U","NORAD_CAT_ID":58829,"ELEMENT_SET_NO":999,"REV_AT_EPOCH":9403,"BSTAR":2.5196673e-5,"MEAN_MOTION_DOT":3.87e-6,"MEAN_MOTION_DDOT":0},{"OBJECT_NAME":"STARLINK-31253","OBJECT_ID":"2024-017E","EPOCH":"2025-09-19T08:01:49.876320","MEAN_MOTION":15.30198577,"ECCENTRICITY":0.00012849,"INCLINATION":53.1595,"RA_OF_ASC_NODE":280.0586,"ARG_OF_PERICENTER":84.7334,"MEAN_ANOMALY":275.3813,"EPHEMERIS_TYPE":0,"CLASSIFICATION_TYPE":"U","NORAD_CAT_ID":58830,"ELEMENT_SET_NO":999,"REV_AT_EPOCH":9382,"BSTAR":4.1478067e-5,"MEAN_MOTION_DOT":8.69e-6,"MEAN_MOTION_DDOT":0},{"OBJECT_NAME":"STARLINK-31232","OBJECT_ID":"2024-017F","EPOCH":"2025-09-20T18:24:57.074400","MEAN_MOTION":15.3015447,"ECCENTRICITY":0.00016849,"INCLINATION":53.1593,"RA_OF_ASC_NODE":273.3587,"ARG_OF_PERICENTER":75.8029,"MEAN_ANOMALY":284.3159,"EPHEMERIS_TYPE":0,"CLASSIFICATION_TYPE":"U","NORAD_CAT_ID":58831,"ELEMENT_SET_NO":999,"REV_AT_EPOCH":9404,"BSTAR":0.00034537777,"MEAN_MOTION_DOT":9.869e-5,"MEAN_MOTION_DDOT":0},{"OBJECT_NAME":"STARLINK-31263","OBJECT_ID":"2024-017G","EPOCH":"2025-09-20T01:13:41.274624","MEAN_MOTION":15.39618144,"ECCENTRICITY":0.00020893,"INCLINATION":53.159,"RA_OF_ASC_NODE":268.8961,"ARG_OF_PERICENTER":118.9306,"MEAN_ANOMALY":241.1909,"EPHEMERIS_TYPE":0,"CLASSIFICATION_TYPE":"U","NORAD_CAT_ID":58832,"ELEMENT_SET_NO":999,"REV_AT_EPOCH":9415,"BSTAR":3.0615855e-5,"MEAN_MOTION_DOT":8.25e-6,"MEAN_MOTION_DDOT":0},{"OBJECT_NAME":"STARLINK-31171","OBJECT_ID":"2024-017J","EPOCH":"2025-09-20T16:27:18.972000","MEAN_MOTION":15.30191613,"ECCENTRICITY":0.00011578,"INCLINATION":53.1581,"RA_OF_ASC_NODE":250.4189,"ARG_OF_PERICENTER":94.6982,"MEAN_ANOMALY":265.4151,"EPHEMERIS_TYPE":0,"CLASSIFICATION_TYPE":"U","NORAD_CAT_ID":58834,"ELEMENT_SET_NO":999,"REV_AT_EPOCH":9435,"BSTAR":3.9612112e-5,"MEAN_MOTION_DOT":8.14e-6,"MEAN_MOTION_DDOT":0},{"OBJECT_NAME":"STARLINK-31246","OBJECT_ID":"2024-017K","EPOCH":"2025-09-19T12:57:40.137696","MEAN_MOTION":15.30196436,"ECCENTRICITY":0.00014703,"INCLINATION":53.1591,"RA_OF_ASC_NODE":279.2063,"ARG_OF_PERICENTER":90.7795,"MEAN_ANOMALY":269.3374,"EPHEMERIS_TYPE":0,"CLASSIFICATION_TYPE":"U","NORAD_CAT_ID":58835,"ELEMENT_SET_NO":999,"REV_AT_EPOCH":9385,"BSTAR":3.233847e-5,"MEAN_MOTION_DOT":5.98e-6,"MEAN_MOTION_DDOT":0},{"OBJECT_NAME":"STARLINK-31251","OBJECT_ID":"2024-017L","EPOCH":"2025-09-20T17:21:14.611392","MEAN_MOTION":15.30198612,"ECCENTRICITY":0.00014223,"INCLINATION":53.162,"RA_OF_ASC_NODE":273.7904,"ARG_OF_PERICENTER":71.7946,"MEAN_ANOMALY":288.321,"EPHEMERIS_TYPE":0,"CLASSIFICATION_TYPE":"U","NORAD_CAT_ID":58836,"ELEMENT_SET_NO":999,"REV_AT_EPOCH":9414,"BSTAR":6.2302556e-5,"MEAN_MOTION_DOT":1.486e-5,"MEAN_MOTION_DDOT":0},{"OBJECT_NAME":"STARLINK-31249","OBJECT_ID":"2024-017N","EPOCH":"2025-09-20T17:30:23.887296","MEAN_MOTION":15.3014853,"ECCENTRICITY":0.00013962,"INCLINATION":53.1595,"RA_OF_ASC_NODE":273.8302,"ARG_OF_PERICENTER":100.1173,"MEAN_ANOMALY":259.9985,"EPHEMERIS_TYPE":0,"CLASSIFICATION_TYPE":"U","NORAD_CAT_ID":58838,"ELEMENT_SET_NO":999,"REV_AT_EPOCH":9403,"BSTAR":0.00035345459,"MEAN_MOTION_DOT":0.00010107,"MEAN_MOTION_DDOT":0},{"OBJECT_NAME":"STARLINK-31250","OBJECT_ID":"2024-017P","EPOCH":"2025-09-20T01:00:20.158272","MEAN_MOTION":15.39618367,"ECCENTRICITY":7.243e-5,"INCLINATION":53.1588,"RA_OF_ASC_NODE":268.8357,"ARG_OF_PERICENTER":62.3206,"MEAN_ANOMALY":297.7872,"EPHEMERIS_TYPE":0,"CLASSIFICATION_TYPE":"U","NORAD_CAT_ID":58839,"ELEMENT_SET_NO":999,"REV_AT_EPOCH":9399,"BSTAR":4.4925361e-5,"MEAN_MOTION_DOT":1.398e-5,"MEAN_MOTION_DDOT":0},{"OBJECT_NAME":"STARLINK-31248","OBJECT_ID":"2024-017Q","EPOCH":"2025-09-20T18:30:16.697376","MEAN_MOTION":15.3019415,"ECCENTRICITY":0.00013268,"INCLINATION":53.1599,"RA_OF_ASC_NODE":286.1387,"ARG_OF_PERICENTER":85.2187,"MEAN_ANOMALY":274.8965,"EPHEMERIS_TYPE":0,"CLASSIFICATION_TYPE":"U","NORAD_CAT_ID":58840,"ELEMENT_SET_NO":999,"REV_AT_EPOCH":9397,"BSTAR":1.918919e-5,"MEAN_MOTION_DOT":2.09e-6,"MEAN_MOTION_DDOT":0},{"OBJECT_NAME":"STARLINK-31236","OBJECT_ID":"2024-017R","EPOCH":"2025-09-20T17:39:30.242880","MEAN_MOTION":15.3019206,"ECCENTRICITY":0.00014044,"INCLINATION":53.1579,"RA_OF_ASC_NODE":273.8726,"ARG_OF_PERICENTER":86.5101,"MEAN_ANOMALY":273.6061,"EPHEMERIS_TYPE":0,"CLASSIFICATION_TYPE":"U","NORAD_CAT_ID":58841,"ELEMENT_SET_NO":999,"REV_AT_EPOCH":9403,"BSTAR":-4.2719678e-5,"MEAN_MOTION_DOT":-1.624e-5,"MEAN_MOTION_DDOT":0}]
