STARLINK-31174          
1 58808U 24012X   25263.70468026  .00001836  00000+0  76205-4 0  9990
2 58808  43.0035  44.8263 0000750 321.2917  38.7880 15.27590465 95248
STARLINK-31169          
1 58809U 24012Y   25262.43421988  .00000932  00000+0  43399-4 0  9990
2 58809  43.0026  52.4837 0001472 273.2688  86.7995 15.27580888 95040
STARLINK-31233          
1 58826U 24017A   25262.34727085  .00000255  00000+0  20739-4 0  9992
2 58826  53.1595 280.1433 0001343  89.5981 270.5174 15.30195220 93940
STARLINK-31271          
1 58827U 24017B   25263.74526409 -.00000187  00000+0  58062-5 0  9991
2 58827  53.1589 273.9327 0001303  87.0081 273.1069 15.30190270 94039
STARLINK-31222          
1 58828U 24017C   25263.03935046  .00000598  00000+0  32343-4 0  9993
2 58828  53.1587 276.6370 0001441  78.7251 281.3912 15.30190878 93935
STARLINK-31258          
1 58829U 24017D   25263.72521079  .00000387  00000+0  25197-4 0  9992
2 58829  53.1598 273.8059 0001224  91.5182 268.5960 15.30201160 94035
STARLINK-31253          
1 58830U 24017E   25262.33460505  .00000869  00000+0  41478-4 0  9991
2 58830  53.1595 280.0586 0001284  84.7334 275.3813 15.30198577 93824
STARLINK-31232          
1 58831U 24017F   25263.76732725  .00009869  00000+0  34538-3 0  9993
2 58831  53.1593 273.3587 0001684  75.8029 284.3159 15.30154470 94047
STARLINK-31263          
1 58832U 24017G   25263.05117216  .00000825  00000+0  30616-4 0  9995
2 58832  53.1590 268.8961 0002089 118.9306 241.1909 15.39618144 94155
STARLINK-31171          
1 58834U 24017J   25263.68563625  .00000814  00000+0  39612-4 0  9998
2 58834  53.1581 250.4189 0001157  94.6982 265.4151 15.30191613 94359
STARLINK-31246          
1 58835U 24017K   25262.54004789  .00000598  00000+0  32338-4 0  9991
2 58835  53.1591 279.2063 0001470  90.7795 269.3374 15.30196436 93850
STARLINK-31251          
1 58836U 24017L   25263.72308578  .00001486  00000+0  62303-4 0  9998
2 58836  53.1620 273.7904 0001422  71.7946 288.3210 15.30198612 94142
STARLINK-31249          
1 58838U 24017N   25263.72944314  .00010107  00000+0  35345-3 0  9999
2 58838  53.1595 273.8302 0001396 100.1173 259.9985 15.30148530 94032
STARLINK-31250          
1 58839U 24017P   25263.04189998  .00001398  00000+0  44925-4 0  9991
2 58839  53.1588 268.8357 0000724  62.3206 297.7872 15.39618367 93997
STARLINK-31248          
1 58840U 24017Q   25263.77102659  .00000209  00000+0  19189-4 0  9996
2 58840  53.1599 286.1387 0001326  85.2187 274.8965 15.30194150 93975
STARLINK-31236          
1 58841U 24017R   25263.73576670 -.00001624  00000+0 -42720-4 0  9992
2 58841  53.1579 273.8726 0001404  86.5101 273.6061 15.30192060 94031
